ARSAT 1                 
1 40272U 14062B   20235.43479609 -.00000274  00000-0  00000-0 0  9996
2 40272   0.0541 276.4861 0001410 225.3169 274.1023  1.00273166 21306
EXPRESS-AM6             
1 40277U 14064A   20235.39841035  .00000083  00000-0  00000+0 0  9990
2 40277   0.0641 282.6625 0000740 293.9700 310.9550  1.00275367 21361
GSAT-16                 
1 40332U 14078A   20235.46279448  .00000070  00000-0  00000-0 0  9995
2 40332   0.1306 271.4652 0006673 188.2965  93.1360  1.00272171 20827
DIRECTV 14              
1 40333U 14078B   20235.50704517 -.00000140  00000-0  00000+0 0  9999
2 40333   0.0176 143.7095 0000375 261.8769   8.9708  1.00273554 20946
YAMAL 401               
1 40345U 14082A   20235.51160229 -.00000242  00000-0  00000-0 0  9998
2 40345   0.0048 159.2968 0000804 198.3419 247.7377  1.00269765 20619
ASTRA 2G                
1 40364U 14089A   20235.31393661  .00000136  00000-0  00000+0 0  9992
2 40364   0.0117   4.1659 0003566  87.4321  20.6852  1.00268724 20711
FENGYUN 2G              
1 40367U 14090A   20235.54348769 -.00000313  00000-0  00000-0 0  9990
2 40367   2.2355  93.7471 0001085 330.8006 201.6546  1.00262817 20737
MUOS-3                  
1 40374U 15002A   20235.37692093 -.00000141  00000-0  00000-0 0  9994
2 40374   2.7671 348.9317 0059074 178.4453 283.9769  1.00271608 20297
INMARSAT 5-F2           
1 40384U 15005A   20235.46058666 -.00000299  00000-0  00000-0 0  9994
2 40384   0.0153 127.0104 0000267 321.2458 353.7568  1.00271343 19687
ABS-3A                  
1 40424U 15010A   20235.37953800 -.00000041  00000-0  00000+0 0  9993
2 40424   0.0140 103.2376 0002491 327.4752  34.0618  1.00272122 20099
EUTELSAT 115 WEST B     
1 40425U 15010B   20235.58669843 -.00000039  00000-0  00000-0 0  9996
2 40425   0.0123 268.2938 0000090 329.9338 189.4199  1.00271369 20098
EXPRESS-AM7             
1 40505U 15012A   20234.23945552  .00000137  00000-0  10027+1 0  9990
2 40505   0.0292 101.5318 0002476  56.9154 297.7469  1.00271932 20042
IRNSS-1D                
1 40547U 15018A   20234.54098664 -.00000284  00000-0  00000+0 0  9992
2 40547  29.1291 276.2067 0021492 189.0041 171.6860  1.00272091 19930
BEIDOU 17               
1 40549U 15019A   20235.51082970 -.00000185  00000-0  00000+0 0  9996
2 40549  52.9586 320.4448 0040492 189.9567 102.1741  1.00273265 19774
THOR 7                  
1 40613U 15022A   20235.30817904 -.00000023  00000-0  00000+0 0  9993
2 40613   0.0469 269.0910 0002573 240.3891 291.8789  1.00269836 19511
TURKMENALEM52E/MONACOSAT
1 40617U 15023A   20235.39841035  .00000089  00000-0  00000-0 0  9991
2 40617   0.0175 111.1612 0003082  46.8807   8.5462  1.00272064 19537
DIRECTV 15              
1 40663U 15026A   20235.59490360 -.00000117  00000-0  00000-0 0  9991
2 40663   0.0112 111.4277 0000369  29.6055 301.6513  1.00272810 19159
SKY MEXICO-1            
1 40664U 15026B   20235.49259366 -.00000248  00000-0  00000-0 0  9995
2 40664   0.0149 110.7632 0001994  36.4578 282.5864  1.00272329 19216
METEOSAT-11 (MSG-4)     
1 40732U 15034A   20235.30844074 -.00000013  00000-0  00000-0 0  9996
2 40732   0.6871 271.7766 0003461 231.5878 299.1707  1.00278141 18721
STAR ONE C4             
1 40733U 15034B   20235.43620397 -.00000279  00000-0  00000+0 0  9994
2 40733   0.0309 310.0557 0001033 202.2367 265.9221  1.00272956 18717
WGS F7 (USA 263)        
1 40746U 15036A   20235.55197691  .00000003  00000-0  00000-0 0  9994
2 40746   0.0129  95.7074 0000181  70.6914 178.5998  1.00269886 18572
INTELSAT 34 (IS-34)     
1 40874U 15039A   20235.46058715 -.00000300  00000-0  00000+0 0  9992
2 40874   0.0118 153.2371 0001198 237.0385  51.2690  1.00268756 18315
EUTELSAT 8 WEST B       
1 40875U 15039B   20235.42826991 -.00000080  00000-0  00000+0 0  9993
2 40875   0.0737  36.4205 0004682  92.5601 348.3877  1.00272457 18384
GSAT-6                  
1 40880U 15041A   20235.50344241 -.00000175  00000-0  00000-0 0  9990
2 40880   0.0762 273.4222 0005030 292.8227  28.7590  1.00272112 18342
INMARSAT 5-F3           
1 40882U 15042A   20235.44541168  .00000036  00000-0  00000-0 0  9998
2 40882   0.0138 119.1900 0000496 325.3067 226.6388  1.00271674 18262
MUOS-4                  
1 40887U 15044A   20235.46680733 -.00000106  00000-0  00000-0 0  9998
2 40887   2.8943 345.1968 0051058   0.7077 228.4137  1.00271268 18251
TJS-1                   
1 40892U 15046A   20235.61095139 -.00000171  00000-0  10000-3 0  9999
2 40892   0.0563 280.5636 0004737  87.6235 338.0821  1.00269962 18246
EXPRESS-AM8             
1 40895U 15048A   20233.36739466 -.00000124  00000-0  00000+0 0  9995
2 40895   0.0281 258.8221 0000072  27.4237 161.1680  1.00271707 18053
BEIDOU 20               
1 40938U 15053A   20235.31730329 -.00000105  00000-0  00000-0 0  9995
2 40938  52.5180 283.4786 0051949 190.5088  65.6490  1.00258255 18056
SKY MUSTER (NBN1A)      
1 40940U 15054A   20235.47989271 -.00000293  00000-0  00000+0 0  9995
2 40940   0.0159 207.9818 0001666 296.9488 139.3030  1.00271974 17956
ARSAT 2                 
1 40941U 15054B   20235.50754649 -.00000239  00000-0  00000-0 0  9990
2 40941   0.0343 243.6019 0001563 256.4537 292.9144  1.00272389 18015
MORELOS 3               
1 40946U 15056A   20235.49740264 -.00000055  00000-0  00000-0 0  9999
2 40946   4.7184 328.8214 0003516 183.7195 244.6613  1.00272122 17984
APSTAR 9                
1 40982U 15059A   20235.48024164 -.00000280  00000-0  00000-0 0  9995
2 40982   0.0327 232.6489 0002932 262.6407 150.8549  1.00270962 17821
TURKSAT 4B              
1 40984U 15060A   20235.28174413  .00000101  00000-0  00000+0 0  9990
2 40984   0.0461 287.8330 0001914 219.5631 335.0757  1.00268083 17805
CHINASAT 2C (ZX 2C)     
1 41021U 15063A   20234.32641703 -.00000337  00000-0  00000+0 0  9993
2 41021   0.0507 279.0944 0000710 247.1110  24.8229  1.00269381 17691
GSAT-15                 
1 41028U 15065A   20235.47063288 -.00000272  00000-0  00000-0 0  9994
2 41028   0.0531 283.0421 0002727 192.9428 118.1697  1.00270264 17507
BADR-7 (ARABSAT-6B)     
1 41029U 15065B   20235.41160414  .00000130  00000-0  00000-0 0  9990
2 41029   0.0576 269.1766 0005261 306.9223 289.2271  1.00269361 17469
LAOSAT 1                
1 41034U 15067A   20235.50049611 -.00000358  00000-0  00000-0 0  9996
2 41034   0.0585 291.9599 0001276 200.4332 147.5547  1.00270367 17531
TELSTAR 12V             
1 41036U 15068A   20235.42826991 -.00000133  00000-0  00000-0 0  9995
2 41036   0.0139 109.6685 0001733  35.2574 325.4374  1.00271046 17326
CHINASAT 1C (ZX 1C)     
1 41103U 15073A   20235.57827279 -.00000165  00000-0  00000-0 0  9997
2 41103   1.7704  91.8508 0001243  29.4576 139.6734  1.00271367 17361
ELEKTRO-L 2             
1 41105U 15074A   20235.43382688 -.00000136  00000-0  00000-0 0  9993
2 41105   1.3531  96.5712 0006168  84.7360 291.9502  1.00215037 17213
COSMOS 2513             
1 41121U 15075A   20235.46794139 -.00000153  00000-0  00000+0 0  9991
2 41121   0.0408 115.9495 0001629  38.9258  65.0548  1.00274027 17290
EXPRESS-AMU1            
1 41191U 15082A   20235.35743921  .00000141  00000-0  00000-0 0  9994
2 41191   0.0176 141.5893 0002471   9.0859 345.2316  1.00267412 16978
GAOFEN 4                
1 41194U 15083A   20235.59563326 -.00000349  00000-0  00000-0 0  9994
2 41194   0.0667 271.6004 0005722 275.0428 104.8275  1.00268521 17183
BELINTERSAT-1           
1 41238U 16001A   20235.40396454  .00000092  00000-0  00000-0 0  9994
2 41238   0.0368 303.9218 0001203 206.0486  18.1116  1.00273737 16954
IRNSS-1E                
1 41241U 16003A   20234.54098664 -.00000304  00000-0  00000+0 0  9992
2 41241  29.3394  95.1937 0020238 177.9106   3.7925  1.00271223 16881
EUTELSAT 9B             
1 41310U 16005A   20235.41715855  .00000047  00000-0  00000+0 0  9999
2 41310   0.0720  83.0630 0003072 161.6447 245.6190  1.00272017 16803
SES-9                   
1 41380U 16013A   20235.40178316 -.00000360  00000-0  00000-0 0  9999
2 41380   0.0559 287.7200 0001808 188.2206 108.1600  1.00271188 16132
EUTELSAT 65 WEST A      
1 41382U 16014A   20235.43831359 -.00000291  00000-0  00000+0 0  9990
2 41382   0.0527 354.9451 0001679 142.8808 285.9683  1.00272679 16348
IRNSS-1F                
1 41384U 16015A   20235.24301382  .00000144  00000-0  00000-0 0  9997
2 41384   2.1060 213.3709 0018889 186.8200  50.6337  1.00276127 16383
BEIDOU IGSO-6           
1 41434U 16021A   20235.26688488 -.00000134  00000-0  00000-0 0  9997
2 41434  57.1260  59.8106 0040047 203.3028 258.5054  1.00286756 16181
IRNSS-1G                
1 41469U 16027A   20235.47771181 -.00000350  00000-0  00000-0 0  9997
2 41469   2.1191 216.6021 0005370 276.8765 139.1207  1.00277400 15891
JCSAT-2B                
1 41471U 16028A   20235.52072808 -.00000180  00000-0  00000+0 0  9997
2 41471   0.0037 173.9439 0001999 342.8055 155.9805  1.00267016 15787
THAICOM 8               
1 41552U 16031A   20235.46759244 -.00000135  00000-0  00000+0 0  9990
2 41552   0.0497  77.5315 0002695 357.8282 142.6220  1.00271452 15470
INTELSAT 31 (IS-31)     
1 41581U 16035A   20235.42257230 -.00000164  00000-0  00000-0 0  9993
2 41581   0.0165 190.4814 0001342  30.9384 166.8250  1.00269863 15398
BEIDOU-2 G7             
1 41586U 16037A   20235.51160229 -.00000368  00000-0  00000+0 0  9996
2 41586   1.6244  66.1518 0007754   7.0956 192.7383  1.00269209 15479
ABS-2A (MONGOLSAT-1)    
1 41588U 16038A   20235.26507530 -.00000098  00000-0  00000+0 0  9991
2 41588   0.0088 104.5076 0002117 311.6198  85.0550  1.00271569 15399
EUTELSAT 117 WEST B     
1 41589U 16038B   20235.49395438 -.00000026  00000-0  00000+0 0  9990
2 41589   0.0095 275.6999 0000322 257.8860 218.4863  1.00274069 15404
BRISAT                  
1 41591U 16039A   20235.56732904 -.00000211  00000-0  00000-0 0  9992
2 41591   0.0147 144.2273 0002153   5.6803 176.1525  1.00269864 15324
